NORAD_CAT_ID,OBJECT_NAME,OBJECT_TYPE,EPOCH,MEAN_MOTION,ECCENTRICITY,INCLINATION,RA_OF_ASC_NODE,ARG_OF_PERICENTER,MEAN_ANOMALY,BSTAR,MEAN_MOTION_DOT,MEAN_MOTION_DDOT,TLE_LINE0,TLE_LINE1,TLE_LINE2,SEMIMAJOR_AXIS,PERIOD,APOGEE,PERIGEE,DECAYED
55426.0,STARLINK-5638,PAYLOAD,2024-08-18 22:16:55,14.98337419,0.0003037,70.0006,76.1219,271.7449,88.3362,0.00019744,2.264e-05,0.0,0 STARLINK-5638,1 55426U 23014AM  24231.92841716  .00002264  00000-0  19744-3 0  9994,2 55426  70.0006  76.1219 0003037 271.7449  88.3362 14.98337419 86519,6950.17,96.107,574.146,569.924,0.0
55426.0,STARLINK-5638,PAYLOAD,2024-08-18 23:53:03,14.98337827,0.000304,70.0006,75.9536,271.8068,88.2742,0.00019999,2.295e-05,0.0,0 STARLINK-5638,1 55426U 23014AM  24231.99517675  .00002295  00000-0  19999-3 0  9991,2 55426  70.0006  75.9536 0003040 271.8068  88.2742 14.98337827 85580,6950.169,96.106,574.147,569.921,0.0
55426.0,STARLINK-5638,PAYLOAD,2024-08-19 12:42:07,14.98332683,0.0002906,70.0007,74.6079,264.2747,95.808,0.00011735,1.308e-05,0.0,0 STARLINK-5638,1 55426U 23014AM  24232.52925813  .00001308  00000-0  11735-3 0  9992,2 55426  70.0007  74.6079 0002906 264.2747  95.8080 14.98332683 86607,6950.185,96.107,574.069,570.03,0.0
55426.0,STARLINK-5638,PAYLOAD,2024-08-19 20:42:48,14.98332266,0.0002936,70.0007,73.766,265.7273,94.355,8.6158e-05,9.35e-06,0.0,0 STARLINK-5638,1 55426U 23014AM  24232.86305812  .00000935  00000-0  86158-4 0  9997,2 55426  70.0007  73.7660 0002936 265.7273  94.3550 14.98332266 85710,6950.186,96.107,574.091,570.01,0.0
55426.0,STARLINK-5638,PAYLOAD,2024-08-20 14:20:16,14.98336112,0.0002926,69.9996,71.9134,270.5768,89.5056,9.3146e-05,1.019e-05,0.0,0 STARLINK-5638,1 55426U 23014AM  24233.59741644  .00001019  00000-0  93146-4 0  9994,2 55426  69.9996  71.9134 0002926 270.5768  89.5056 14.98336112 86769,6950.174,96.107,574.073,570.005,0.0
55426.0,STARLINK-5638,PAYLOAD,2024-08-20 22:20:57,14.98335845,0.0002974,69.9995,71.0721,269.3269,90.7549,6.5641e-05,6.9e-06,0.0,0 STARLINK-5638,1 55426U 23014AM  24233.93121562  .00000690  00000-0  65641-4 0  9996,2 55426  69.9995  71.0721 0002974 269.3269  90.7549 14.98335845 85870,6950.175,96.107,574.107,569.973,0.0
55426.0,STARLINK-5638,PAYLOAD,2024-08-21 12:46:10,14.98327202,0.0002951,69.9994,69.5565,272.6493,87.4328,6.0913e-05,6.34e-06,0.0,0 STARLINK-5638,1 55426U 23014AM  24234.53206191  .00000634  00000-0  60913-4 0  9990,2 55426  69.9994  69.5565 0002951 272.6493  87.4328 14.98327202 85964,6950.202,96.107,574.118,570.016,0.0
55426.0,STARLINK-5638,PAYLOAD,2024-08-21 14:22:18,14.9832788,0.0003003,69.9994,69.3891,266.912,93.1695,6.2564e-05,6.54e-06,0.0,0 STARLINK-5638,1 55426U 23014AM  24234.59882077  .00000654  00000-0  62564-4 0  9995,2 55426  69.9994  69.3891 0003003 266.9120  93.1695 14.98327880 86915,6950.199,96.107,574.152,569.977,0.0
55426.0,STARLINK-5638,PAYLOAD,2024-08-21 20:46:50,14.98326647,0.0003021,69.9995,68.7157,266.6676,93.4137,3.5732e-05,3.33e-06,0.0,0 STARLINK-5638,1 55426U 23014AM  24234.86586220  .00000333  00000-0  35732-4 0  9997,2 55426  69.9995  68.7157 0003021 266.6676  93.4137 14.98326647 86955,6950.203,96.107,574.168,569.969,0.0
